[{"OBJECT_NAME":"ATLAS CENTAUR 2","OBJECT_ID":"1963-047A","EPOCH":"2026-03-13T13:50:58.034112","MEAN_MOTION":14.1208284,"ECCENTRICITY":0.0547669,"INCLINATION":30.3514,"RA_OF_ASC_NODE":173.9169,"ARG_OF_PERICENTER":114.5395,"MEAN_ANOMALY":251.3283,"EPHEMERIS_TYPE":0,"CLASSIFICATION_TYPE":"U","NORAD_CAT_ID":694,"ELEMENT_SET_NO":999,"REV_AT_EPOCH":13217,"BSTAR":0.00026210045,"MEAN_MOTION_DOT":2.229e-5,"MEAN_MOTION_DDOT":0},{"OBJECT_NAME":"THOR AGENA D R/B","OBJECT_ID":"1964-002A","EPOCH":"2026-03-13T11:58:54.601248","MEAN_MOTION":14.34022907,"ECCENTRICITY":0.00320245,"INCLINATION":99.1223,"RA_OF_ASC_NODE":86.0443,"ARG_OF_PERICENTER":246.7043,"MEAN_ANOMALY":113.0769,"EPHEMERIS_TYPE":0,"CLASSIFICATION_TYPE":"U","NORAD_CAT_ID":733,"ELEMENT_SET_NO":999,"REV_AT_EPOCH":23884,"BSTAR":0.00012286347,"MEAN_MOTION_DOT":2.96e-6,"MEAN_MOTION_DDOT":0},{"OBJECT_NAME":"SL-3 R/B","OBJECT_ID":"1964-053B","EPOCH":"2026-03-13T02:43:35.619744","MEAN_MOTION":14.61371403,"ECCENTRICITY":0.00798552,"INCLINATION":65.0782,"RA_OF_ASC_NODE":321.1997,"ARG_OF_PERICENTER":291.1413,"MEAN_ANOMALY":68.1165,"EPHEMERIS_TYPE":0,"CLASSIFICATION_TYPE":"U","NORAD_CAT_ID":877,"ELEMENT_SET_NO":999,"REV_AT_EPOCH":26729,"BSTAR":7.7790878e-5,"MEAN_MOTION_DOT":2.77e-6,"MEAN_MOTION_DDOT":0},{"OBJECT_NAME":"SL-8 R/B","OBJECT_ID":"1967-045B","EPOCH":"2026-03-13T04:09:52.789824","MEAN_MOTION":14.45626351,"ECCENTRICITY":0.00643859,"INCLINATION":74.014,"RA_OF_ASC_NODE":341.5839,"ARG_OF_PERICENTER":347.019,"MEAN_ANOMALY":12.9307,"EPHEMERIS_TYPE":0,"CLASSIFICATION_TYPE":"U","NORAD_CAT_ID":2802,"ELEMENT_SET_NO":999,"REV_AT_EPOCH":8952,"BSTAR":0.00012319472,"MEAN_MOTION_DOT":4.18e-6,"MEAN_MOTION_DDOT":0},{"OBJECT_NAME":"SL-8 R/B","OBJECT_ID":"1968-040B","EPOCH":"2026-03-13T15:16:01.958592","MEAN_MOTION":15.03285606,"ECCENTRICITY":0.00237764,"INCLINATION":74.0313,"RA_OF_ASC_NODE":305.6305,"ARG_OF_PERICENTER":127.8391,"MEAN_ANOMALY":232.4954,"EPHEMERIS_TYPE":0,"CLASSIFICATION_TYPE":"U","NORAD_CAT_ID":3230,"ELEMENT_SET_NO":999,"REV_AT_EPOCH":9060,"BSTAR":0.00025875632,"MEAN_MOTION_DOT":3.489e-5,"MEAN_MOTION_DDOT":0},{"OBJECT_NAME":"OAO 2","OBJECT_ID":"1968-110A","EPOCH":"2026-03-13T13:51:25.838496","MEAN_MOTION":14.47310464,"ECCENTRICITY":0.00061037,"INCLINATION":34.9925,"RA_OF_ASC_NODE":243.5167,"ARG_OF_PERICENTER":234.0743,"MEAN_ANOMALY":125.9382,"EPHEMERIS_TYPE":0,"CLASSIFICATION_TYPE":"U","NORAD_CAT_ID":3597,"ELEMENT_SET_NO":999,"REV_AT_EPOCH":1966,"BSTAR":8.7998417e-5,"MEAN_MOTION_DOT":3.08e-6,"MEAN_MOTION_DDOT":0},{"OBJECT_NAME":"ISIS 1","OBJECT_ID":"1969-009A","EPOCH":"2026-03-13T06:14:29.442336","MEAN_MOTION":11.3041554,"ECCENTRICITY":0.17078232,"INCLINATION":88.4538,"RA_OF_ASC_NODE":154.9195,"ARG_OF_PERICENTER":81.9596,"MEAN_ANOMALY":297.0861,"EPHEMERIS_TYPE":0,"CLASSIFICATION_TYPE":"U","NORAD_CAT_ID":3669,"ELEMENT_SET_NO":999,"REV_AT_EPOCH":34893,"BSTAR":9.715021e-5,"MEAN_MOTION_DOT":1.6e-6,"MEAN_MOTION_DDOT":0},{"OBJECT_NAME":"SERT 2","OBJECT_ID":"1970-009A","EPOCH":"2026-03-13T07:48:58.781376","MEAN_MOTION":13.58730231,"ECCENTRICITY":0.00051915,"INCLINATION":99.2761,"RA_OF_ASC_NODE":15.2203,"ARG_OF_PERICENTER":146.6829,"MEAN_ANOMALY":7.2096,"EPHEMERIS_TYPE":0,"CLASSIFICATION_TYPE":"U","NORAD_CAT_ID":4327,"ELEMENT_SET_NO":999,"REV_AT_EPOCH":78038,"BSTAR":6.7096595e-5,"MEAN_MOTION_DOT":8.0e-8,"MEAN_MOTION_DDOT":0},{"OBJECT_NAME":"SL-3 R/B","OBJECT_ID":"1971-028B","EPOCH":"2026-03-13T13:34:42.445920","MEAN_MOTION":15.61487354,"ECCENTRICITY":0.0013224,"INCLINATION":81.2359,"RA_OF_ASC_NODE":47.2402,"ARG_OF_PERICENTER":268.1273,"MEAN_ANOMALY":91.8466,"EPHEMERIS_TYPE":0,"CLASSIFICATION_TYPE":"U","NORAD_CAT_ID":5118,"ELEMENT_SET_NO":999,"REV_AT_EPOCH":98927,"BSTAR":0.0005694729,"MEAN_MOTION_DOT":0.00049122,"MEAN_MOTION_DDOT":0},{"OBJECT_NAME":"ASTEX 1","OBJECT_ID":"1971-089A","EPOCH":"2026-03-13T06:30:11.454624","MEAN_MOTION":14.50773997,"ECCENTRICITY":0.00177648,"INCLINATION":92.7116,"RA_OF_ASC_NODE":152.9177,"ARG_OF_PERICENTER":75.3542,"MEAN_ANOMALY":284.9632,"EPHEMERIS_TYPE":0,"CLASSIFICATION_TYPE":"U","NORAD_CAT_ID":5560,"ELEMENT_SET_NO":999,"REV_AT_EPOCH":86282,"BSTAR":0.0001445772,"MEAN_MOTION_DOT":5.69e-6,"MEAN_MOTION_DDOT":0},{"OBJECT_NAME":"SL-8 R/B","OBJECT_ID":"1971-119B","EPOCH":"2026-03-13T08:16:43.684320","MEAN_MOTION":14.37956547,"ECCENTRICITY":0.05482309,"INCLINATION":73.8867,"RA_OF_ASC_NODE":168.8854,"ARG_OF_PERICENTER":134.7616,"MEAN_ANOMALY":229.9534,"EPHEMERIS_TYPE":0,"CLASSIFICATION_TYPE":"U","NORAD_CAT_ID":5730,"ELEMENT_SET_NO":999,"REV_AT_EPOCH":65601,"BSTAR":0.0006053689,"MEAN_MOTION_DOT":0.0001162,"MEAN_MOTION_DDOT":0},{"OBJECT_NAME":"OAO 3 (COPERNICUS)","OBJECT_ID":"1972-065A","EPOCH":"2026-03-13T15:09:02.648160","MEAN_MOTION":14.60001877,"ECCENTRICITY":0.00068258,"INCLINATION":35.0051,"RA_OF_ASC_NODE":274.8591,"ARG_OF_PERICENTER":199.2736,"MEAN_ANOMALY":207.0665,"EPHEMERIS_TYPE":0,"CLASSIFICATION_TYPE":"U","NORAD_CAT_ID":6153,"ELEMENT_SET_NO":999,"REV_AT_EPOCH":84677,"BSTAR":9.5198503e-5,"MEAN_MOTION_DOT":4.43e-6,"MEAN_MOTION_DDOT":0},{"OBJECT_NAME":"ATLAS CENTAUR R/B","OBJECT_ID":"1972-065B","EPOCH":"2026-03-13T14:41:48.186528","MEAN_MOTION":14.77700173,"ECCENTRICITY":0.00331159,"INCLINATION":35.001,"RA_OF_ASC_NODE":282.7655,"ARG_OF_PERICENTER":42.1273,"MEAN_ANOMALY":318.1966,"EPHEMERIS_TYPE":0,"CLASSIFICATION_TYPE":"U","NORAD_CAT_ID":6155,"ELEMENT_SET_NO":999,"REV_AT_EPOCH":84184,"BSTAR":0.00022261766,"MEAN_MOTION_DOT":1.611e-5,"MEAN_MOTION_DDOT":0},{"OBJECT_NAME":"SL-8 R/B","OBJECT_ID":"1975-112B","EPOCH":"2026-03-13T06:13:22.046880","MEAN_MOTION":14.38206043,"ECCENTRICITY":0.00144329,"INCLINATION":74.0633,"RA_OF_ASC_NODE":12.3459,"ARG_OF_PERICENTER":104.0167,"MEAN_ANOMALY":256.2593,"EPHEMERIS_TYPE":0,"CLASSIFICATION_TYPE":"U","NORAD_CAT_ID":8459,"ELEMENT_SET_NO":999,"REV_AT_EPOCH":63238,"BSTAR":0.00010248846,"MEAN_MOTION_DOT":2.86e-6,"MEAN_MOTION_DDOT":0},{"OBJECT_NAME":"SL-3 R/B","OBJECT_ID":"1977-057B","EPOCH":"2026-03-13T14:29:12.382656","MEAN_MOTION":15.45615249,"ECCENTRICITY":0.00061465,"INCLINATION":97.5777,"RA_OF_ASC_NODE":244.6968,"ARG_OF_PERICENTER":267.9324,"MEAN_ANOMALY":92.122,"EPHEMERIS_TYPE":0,"CLASSIFICATION_TYPE":"U","NORAD_CAT_ID":10114,"ELEMENT_SET_NO":999,"REV_AT_EPOCH":66893,"BSTAR":0.00032545835,"MEAN_MOTION_DOT":0.00015596,"MEAN_MOTION_DDOT":0},{"OBJECT_NAME":"SEASAT 1","OBJECT_ID":"1978-064A","EPOCH":"2026-03-13T02:14:01.042368","MEAN_MOTION":14.46163307,"ECCENTRICITY":0.00023583,"INCLINATION":108.0103,"RA_OF_ASC_NODE":132.6414,"ARG_OF_PERICENTER":284.6799,"MEAN_ANOMALY":75.4085,"EPHEMERIS_TYPE":0,"CLASSIFICATION_TYPE":"U","NORAD_CAT_ID":10967,"ELEMENT_SET_NO":999,"REV_AT_EPOCH":50700,"BSTAR":0.00011651724,"MEAN_MOTION_DOT":2.79e-6,"MEAN_MOTION_DDOT":0},{"OBJECT_NAME":"SL-14 R/B","OBJECT_ID":"1979-011B","EPOCH":"2026-03-13T11:17:34.116000","MEAN_MOTION":14.91913438,"ECCENTRICITY":0.00172005,"INCLINATION":82.5205,"RA_OF_ASC_NODE":92.9822,"ARG_OF_PERICENTER":48.8388,"MEAN_ANOMALY":311.4312,"EPHEMERIS_TYPE":0,"CLASSIFICATION_TYPE":"U","NORAD_CAT_ID":11267,"ELEMENT_SET_NO":999,"REV_AT_EPOCH":52934,"BSTAR":6.5949619e-5,"MEAN_MOTION_DOT":6.94e-6,"MEAN_MOTION_DDOT":0}]
