ATLAS CENTAUR 2         
1 00694U 63047A   26072.57706058  .00002229  00000+0  26210-3 0  9992
2 00694  30.3514 173.9169 0547669 114.5395 251.3283 14.12082840132176
THOR AGENA D R/B        
1 00733U 64002A   26072.49924307  .00000296  00000+0  12286-3 0  9998
2 00733  99.1223  86.0443 0032024 246.7043 113.0769 14.34022907238847
SL-3 R/B                
1 00877U 64053B   26072.11360671  .00000277  00000+0  77791-4 0  9992
2 00877  65.0782 321.1997 0079855 291.1413  68.1165 14.61371403267292
SL-8 R/B                
1 02802U 67045B   26072.17352766  .00000418  00000+0  12319-3 0  9999
2 02802  74.0140 341.5839 0064385 347.0190  12.9307 14.45626351 89526
SL-8 R/B                
1 03230U 68040B   26072.63613378  .00003489  00000+0  25876-3 0  9994
2 03230  74.0313 305.6305 0023776 127.8391 232.4954 15.03285606 90606
OAO 2                   
1 03597U 68110A   26072.57738239  .00000308  00000+0  87998-4 0  9996
2 03597  34.9925 243.5167 0006103 234.0743 125.9382 14.47310464 19665
ISIS 1                  
1 03669U 69009A   26072.26006299  .00000160  00000+0  97150-4 0  9991
2 03669  88.4538 154.9195 1707823  81.9596 297.0861 11.30415540348936
SERT 2                  
1 04327U 70009A   26072.32568034  .00000008  00000+0  67097-4 0  9990
2 04327  99.2761  15.2203 0005191 146.6829   7.2096 13.58730231780380
SL-3 R/B                
1 05118U 71028B   26072.56576905  .00049122  00000+0  56947-3 0  9994
2 05118  81.2359  47.2402 0013224 268.1273  91.8466 15.61487354989278
ASTEX 1                 
1 05560U 71089A   26072.27096591  .00000569  00000+0  14458-3 0  9991
2 05560  92.7116 152.9177 0017764  75.3542 284.9632 14.50773997862829
SL-8 R/B                
1 05730U 71119B   26072.34495005  .00011620  00000+0  60537-3 0  9994
2 05730  73.8867 168.8854 0548230 134.7616 229.9534 14.37956547656019
OAO 3 (COPERNICUS)      
1 06153U 72065A   26072.63128065  .00000443  00000+0  95199-4 0  9990
2 06153  35.0051 274.8591 0006825 199.2736 207.0665 14.60001877846777
ATLAS CENTAUR R/B       
1 06155U 72065B   26072.61236327  .00001611  00000+0  22262-3 0  9999
2 06155  35.0010 282.7655 0033115  42.1273 318.1966 14.77700173841841
SL-8 R/B                
1 08459U 75112B   26072.25928295  .00000286  00000+0  10249-3 0  9995
2 08459  74.0633  12.3459 0014432 104.0167 256.2593 14.38206043632383
SL-3 R/B                
1 10114U 77057B   26072.60361554  .00015596  00000+0  32546-3 0  9998
2 10114  97.5777 244.6968 0006146 267.9324  92.1220 15.45615249668930
SEASAT 1                
1 10967U 78064A   26072.09306762  .00000279  00000+0  11652-3 0  9993
2 10967 108.0103 132.6414 0002358 284.6799  75.4085 14.46163307507008
SL-14 R/B               
1 11267U 79011B   26072.47053375  .00000694  00000+0  65950-4 0  9993
2 11267  82.5205  92.9822 0017200  48.8388 311.4312 14.91913438529343
